API VERSION: 1.2
API SOURCE: NASA/JPL Horizons API



*******************************************************************************
Ephemeris / API_USER Wed Apr 15 10:19:08 2026 Pasadena, USA      / Horizons
*******************************************************************************
Target body name: Saturn (699)                    {source: sat441l}
Center body name: Sun (10)                        {source: DE441}
Center-site name: BODY CENTER
*******************************************************************************
Start time      : A.D. 2025-Nov-14 16:42:00.0000 TDB
Stop  time      : A.D. 2025-Nov-16 16:42:00.0000 TDB
Step-size       : 60 minutes
*******************************************************************************
Center geodetic : 0.0, 0.0, 0.0                   {E-lon(deg),Lat(deg),Alt(km)}
Center cylindric: 0.0, 0.0, 0.0                   {E-lon(deg),Dxy(km),Dz(km)}
Center radii    : 695700.0, 695700.0, 695700.0 km {Equator_a, b, pole_c}
Output units    : AU-D
Calendar mode   : Mixed Julian/Gregorian
Output type     : GEOMETRIC cartesian states
Output format   : 3 (position, velocity, LT, range, range-rate)
Reference frame : Ecliptic of J2000.0
*******************************************************************************
            JDTDB,            Calendar Date (TDB),                      X,                      Y,                      Z,                     VX,                     VY,                     VZ,                     LT,                     RG,                     RR,
**************************************************************************************************************************************************************************************************************************************************************************
$$SOE
2460994.195833333, A.D. 2025-Nov-14 16:42:00.0000,  9.525601569276430E+00, -5.568388566910947E-03, -3.790762768333421E-01, -3.090778549827867E-04,  5.566457281219735E-03, -8.429866965558744E-05,  5.505884204025554E-02,  9.533142980529068E+00, -3.087327104724893E-04,
2460994.237500000, A.D. 2025-Nov-14 17:42:00.0000,  9.525588688475992E+00, -5.336452838038430E-03, -3.790797892005631E-01, -3.092006148835377E-04,  5.566457735546346E-03, -8.429496906410930E-05,  5.505876774630732E-02,  9.533130116930694E+00, -3.087200597896791E-04,
2460994.279166667, A.D. 2025-Nov-14 18:42:00.0000,  9.525575802554435E+00, -5.104517086633760E-03, -3.790833014149695E-01, -3.093236687110963E-04,  5.566458356548928E-03, -8.429133127693427E-05,  5.505869345536847E-02,  9.533117253853376E+00, -3.087076998128952E-04,
2460994.320833333, A.D. 2025-Nov-14 19:42:00.0000,  9.525562911499554E+00, -4.872581306526766E-03, -3.790868134787727E-01, -3.094470135686096E-04,  5.566459107137420E-03, -8.428773696732263E-05,  5.505861916736921E-02,  9.533104391285031E+00, -3.086956283810785E-04,
2460994.362500000, A.D. 2025-Nov-14 20:42:00.0000,  9.525550015299395E+00, -4.640645493072096E-03, -3.790903253934015E-01, -3.095706397105284E-04,  5.566459951419140E-03, -8.428416801815818E-05,  5.505854488224100E-02,  9.533091529213793E+00, -3.086838364469118E-04,
2460994.404166667, A.D. 2025-Nov-14 21:42:00.0000,  9.525537113942557E+00, -4.408709643074797E-03, -3.790938371595651E-01, -3.096945311912156E-04,  5.566460855840027E-03, -8.428060808564366E-05,  5.505847059991833E-02,  9.533078667628322E+00, -3.086723087028346E-04,
2460994.445833333, A.D. 2025-Nov-14 22:42:00.0000,  9.525524207418405E+00, -4.176773754672919E-03, -3.790973487773362E-01, -3.098186667021808E-04,  5.566461790094099E-03, -8.427704301981954E-05,  5.505839632034001E-02,  9.533065806518017E+00, -3.086610244009339E-04,
2460994.487500000, A.D. 2025-Nov-14 23:42:00.0000,  9.525511295717299E+00, -3.944837827188005E-03, -3.791008602462486E-01, -3.099430204943404E-04,  5.566462727777239E-03, -8.427346113711582E-05,  5.505832204345045E-02,  9.533052945873257E+00, -3.086499582634182E-04,
2460994.529166667, A.D. 2025-Nov-15 00:42:00.0000,  9.525498378830736E+00, -3.712901860952772E-03, -3.791043715654034E-01, -3.100675633013510E-04,  5.566463646798779E-03, -8.426985335929203E-05,  5.505824776920050E-02,  9.533040085685533E+00, -3.086390813992759E-04,
2460994.570833333, A.D. 2025-Nov-15 01:42:00.0000,  9.525485456751507E+00, -3.480965857126634E-03, -3.791078827335783E-01, -3.101922632127615E-04,  5.566464529599206E-03, -8.426621324973106E-05,  5.505817349754841E-02,  9.533027225947615E+00, -3.086283621747334E-04,
2460994.612500000, A.D. 2025-Nov-15 02:42:00.0000,  9.525472529473756E+00, -3.249029817504329E-03, -3.791113937493376E-01, -3.103170864862078E-04,  5.566465363248425E-03, -8.426253698933286E-05,  5.505809922846027E-02,  9.533014366653628E+00, -3.086177670251295E-04,
2460994.654166667, A.D. 2025-Nov-15 03:42:00.0000,  9.525459596993070E+00, -3.017093744321861E-03, -3.791149046111402E-01, -3.104419983289204E-04,  5.566466139511245E-03, -8.425882333771623E-05,  5.505802496191034E-02,  9.533001507799122E+00, -3.086072612366870E-04,
2460994.695833333, A.D. 2025-Nov-15 04:42:00.0000,  9.525446659306485E+00, -2.785157640058724E-03, -3.791184153174469E-01, -3.105669637113338E-04,  5.566466854957599E-03, -8.425507361786296E-05,  5.505795069788137E-02,  9.532988649381105E+00, -3.085968097594275E-04,
2460994.737500000, A.D. 2025-Nov-15 05:42:00.0000,  9.525433716412493E+00, -2.553221507234057E-03, -3.791219258668272E-01, -3.106919482885610E-04,  5.566467511157438E-03, -8.425129174051679E-05,  5.505787643636443E-02,  9.532975791398034E+00, -3.085863781262898E-04,
2460994.779166667, A.D. 2025-Nov-15 06:42:00.0000,  9.525420768310982E+00, -2.321285348193034E-03, -3.791254362580683E-01, -3.108169194860241E-04,  5.566468114925822E-03, -8.424748424512193E-05,  5.505780217735878E-02,  9.532962933849774E+00, -3.085759335355930E-04,
2460994.820833333, A.D. 2025-Nov-15 07:42:00.0000,  9.525407815003135E+00, -2.089349164884710E-03, -3.791289464902844E-01, -3.109418477387855E-04,  5.566468678463548E-03, -8.424366027295160E-05,  5.505772792087114E-02,  9.532950076737503E+00, -3.085654460897137E-04,
2460994.862500000, A.D. 2025-Nov-15 08:42:00.0000,  9.525394856491287E+00, -1.857412958641495E-03, -3.791324565630208E-01, -3.110667077433918E-04,  5.566469219063138E-03, -8.423983130142734E-05,  5.505765366691508E-02,  9.532937220063557E+00, -3.085548900556563E-04,
2460994.904166667, A.D. 2025-Nov-15 09:42:00.0000,  9.525381892778721E+00, -1.625476729988995E-03, -3.791359664763376E-01, -3.111914793676797E-04,  5.566469757808567E-03, -8.423601035215029E-05,  5.505757941550968E-02,  9.532924363831244E+00, -3.085442448046806E-04,
2460994.945833333, A.D. 2025-Nov-15 10:42:00.0000,  9.525368923869445E+00, -1.393540478546358E-03, -3.791394762308410E-01, -3.113161475474997E-04,  5.566470316378930E-03, -8.423221023428677E-05,  5.505750516667835E-02,  9.532911508044613E+00, -3.085334947779788E-04,
2460994.987500000, A.D. 2025-Nov-15 11:42:00.0000,  9.525355949768031E+00, -1.161604203120529E-03, -3.791429858276123E-01, -3.114407000572106E-04,  5.566470910659031E-03, -8.422844019499873E-05,  5.505743092044785E-02,  9.532898652708305E+00, -3.085226273913584E-04,
2460995.029166667, A.D. 2025-Nov-15 12:42:00.0000,  9.525342970479484E+00, -9.296679018683839E-04, -3.791464952681033E-01, -3.115651297844003E-04,  5.566471562246039E-03, -8.422471209631113E-05,  5.505735667684755E-02,  9.532885797827403E+00, -3.085116350644250E-04,
2460995.070833333, A.D. 2025-Nov-15 13:42:00.0000,  9.525329986009018E+00, -6.977315719488503E-04, -3.791500045543043E-01, -3.116894309973976E-04,  5.566472288299811E-03, -8.422103511142031E-05,  5.505728243590814E-02,  9.532872943407220E+00, -3.085005117003409E-04,
2460995.112500000, A.D. 2025-Nov-15 14:42:00.0000,  9.525316996362015E+00, -4.657952097904297E-04, -3.791535136885880E-01, -3.118136038161029E-04,  5.566473113772139E-03, -8.421742214167644E-05,  5.505720819766137E-02,  9.532860089453251E+00, -3.084892568991950E-04,
2460995.154166667, A.D. 2025-Nov-15 15:42:00.0000,  9.525304001543809E+00, -2.338588108045250E-04, -3.791570226738472E-01, -3.119376487449192E-04,  5.566474058898602E-03, -8.421388335217612E-05,  5.505713396213881E-02,  9.532847235970968E+00, -3.084778707509413E-04,
2460995.195833333, A.D. 2025-Nov-15 16:42:00.0000,  9.525291001559733E+00, -1.922369657420805E-06, -3.791605315133433E-01, -3.120615656768490E-04,  5.566475140238948E-03, -8.421042684345207E-05,  5.505705972937217E-02,  9.532834382965856E+00, -3.084663528143079E-04,
2460995.237500000, A.D. 2025-Nov-15 17:42:00.0000,  9.525277996415104E+00,  2.300141196766257E-04, -3.791640402106744E-01, -3.121853554260056E-04,  5.566476374851585E-03, -8.420706085779008E-05,  5.505698549939309E-02,  9.532821530443393E+00, -3.084547035607228E-04,
2460995.279166667, A.D. 2025-Nov-15 18:42:00.0000,  9.525264986115172E+00,  4.619506639698704E-04, -3.791675487697972E-01, -3.123090209108910E-04,  5.566477781573543E-03, -8.420379441735293E-05,  5.505691127223293E-02,  9.532808678409014E+00, -3.084429255311179E-04,
2460995.320833333, A.D. 2025-Nov-15 19:42:00.0000,  9.525251970665009E+00,  6.938872708142442E-04, -3.791710571950588E-01, -3.124325679086862E-04,  5.566479380787411E-03, -8.420063716228092E-05,  5.505683704792211E-02,  9.532795826867982E+00, -3.084310240958193E-04,
2460995.362500000, A.D. 2025-Nov-15 20:42:00.0000,  9.525238950069371E+00,  9.258239486684927E-04, -3.791745654912132E-01, -3.125560054106945E-04,  5.566481193568370E-03, -8.419759887861138E-05,  5.505676282648935E-02,  9.532782975825269E+00, -3.084190078283506E-04,
2460995.404166667, A.D. 2025-Nov-15 21:42:00.0000,  9.525225924332577E+00,  1.157760706867440E-03, -3.791780736634158E-01, -3.126793456693019E-04,  5.566483240737499E-03, -8.419468899850618E-05,  5.505668860796092E-02,  9.532770125285428E+00, -3.084068885722605E-04,
